$$SOE
2459580.500000000, A.D. 2022-Jan-01 00:00:00.0000, -2.248539332582151E+09, 1.867607180483180E+09, -4.221590798407388E+07,
2459587.500000000, A.D. 2022-Jan-08 00:00:00.0000, -2.250499150834059E+09, 1.863509829687124E+09, -4.127316643307662E+07,
2459594.500000000, A.D. 2022-Jan-15 00:00:00.0000, -2.252454667595260E+09, 1.859408866654353E+09, -4.033034301721311E+07,
2459601.500000000, A.D. 2022-Jan-22 00:00:00.0000, -2.254405870093565E+09, 1.855304293714549E+09, -3.938743985776436E+07,
2459608.500000000, A.D. 2022-Jan-29 00:00:00.0000, -2.256352744975614E+09, 1.851196115697712E+09, -3.844445897322774E+07,
2459615.500000000, A.D. 2022-Feb-05 00:00:00.0000, -2.258295280514028E+09, 1.847084339262547E+09, -3.750140213155329E+07,
2459622.500000000, A.D. 2022-Feb-12 00:00:00.0000, -2.260233466641228E+09, 1.842968971156600E+09, -3.655827098742270E+07,
2459629.500000000, A.D. 2022-Feb-19 00:00:00.0000, -2.262167294134717E+09, 1.838850017777157E+09, -3.561506718957818E+07,
2459636.500000000, A.D. 2022-Feb-26 00:00:00.0000, -2.264096754265179E+09, 1.834727485309880E+09, -3.467179239717352E+07,
2459643.500000000, A.D. 2022-Mar-05 00:00:00.0000, -2.266021838748135E+09, 1.830601379828343E+09, -3.372844827043235E+07,
2459650.500000000, A.D. 2022-Mar-12 00:00:00.0000, -2.267942539777322E+09, 1.826471707288813E+09, -3.278503646161115E+07,
2459657.500000000, A.D. 2022-Mar-19 00:00:00.0000, -2.269858850068758E+09, 1.822338473448456E+09, -3.184155861079538E+07,
2459664.500000000, A.D. 2022-Mar-26 00:00:00.0000, -2.271770762893063E+09, 1.818201683701239E+09, -3.089801634936213E+07,
2459671.500000000, A.D. 2022-Apr-02 00:00:00.0000, -2.273678272028258E+09, 1.814061342775881E+09, -2.995441132215190E+07,
2459678.500000000, A.D. 2022-Apr-09 00:00:00.0000, -2.275581371360971E+09, 1.809917454300942E+09, -2.901074525313783E+07,
2459685.500000000, A.D. 2022-Apr-16 00:00:00.0000, -2.277480053778926E+09, 1.805770020891315E+09, -2.806702003407669E+07,
2459692.500000000, A.D. 2022-Apr-23 00:00:00.0000, -2.279374310623595E+09, 1.801619045840603E+09, -2.712323763128901E+07,
2459699.500000000, A.D. 2022-Apr-30 00:00:00.0000, -2.281264133573137E+09, 1.797464534174264E+09, -2.617939982259178E+07,
2459706.500000000, A.D. 2022-May-07 00:00:00.0000, -2.283149515892933E+09, 1.793306491090070E+09, -2.523550820666659E+07,
2459713.500000000, A.D. 2022-May-14 00:00:00.0000, -2.285030451664295E+09, 1.789144920824179E+09, -2.429156436404884E+07,
2459720.500000000, A.D. 2022-May-21 00:00:00.0000, -2.286906935022460E+09, 1.784979826701608E+09, -2.334756992145050E+07,
2459727.500000000, A.D. 2022-May-28 00:00:00.0000, -2.288778959882641E+09, 1.780811211412390E+09, -2.240352655382454E+07,
2459734.500000000, A.D. 2022-Jun-04 00:00:00.0000, -2.290646519877025E+09, 1.776639077200724E+09, -2.145943597514582E+07,
2459741.500000000, A.D. 2022-Jun-11 00:00:00.0000, -2.292509608358017E+09, 1.772463425969420E+09, -2.051529993093514E+07,
2459748.500000000, A.D. 2022-Jun-18 00:00:00.0000, -2.294368218428997E+09, 1.768284259313137E+09, -1.957112019495189E+07,
2459755.500000000, A.D. 2022-Jun-25 00:00:00.0000, -2.296222342973109E+09, 1.764101578447467E+09, -1.862689857537198E+07,
2459762.500000000, A.D. 2022-Jul-02 00:00:00.0000, -2.298071974546015E+09, 1.759915383968385E+09, -1.768263694802248E+07,
2459769.500000000, A.D. 2022-Jul-09 00:00:00.0000, -2.299917104742312E+09, 1.755725675619247E+09, -1.673833733787549E+07,
2459776.500000000, A.D. 2022-Jul-16 00:00:00.0000, -2.301757723090734E+09, 1.751532453148338E+09, -1.579400195510674E+07,
2459783.500000000, A.D. 2022-Jul-23 00:00:00.0000, -2.303593817676557E+09, 1.747335718334741E+09, -1.484963297752714E+07,
2459790.500000000, A.D. 2022-Jul-30 00:00:00.0000, -2.305425377407107E+09, 1.743135474828695E+09, -1.390523236097431E+07,
2459797.500000000, A.D. 2022-Aug-06 00:00:00.0000, -2.307252392321599E+09, 1.738931726454549E+09, -1.296080195457184E+07,
2459804.500000000, A.D. 2022-Aug-13 00:00:00.0000, -2.309074852768491E+09, 1.734724476730778E+09, -1.201634362000239E+07,
2459811.500000000, A.D. 2022-Aug-20 00:00:00.0000, -2.310892749019729E+09, 1.730513729103670E+09, -1.107185925174642E+07,
2459818.500000000, A.D. 2022-Aug-27 00:00:00.0000, -2.312706071253708E+09, 1.726299487168105E+09, -1.012735076367331E+07,
2459825.500000000, A.D. 2022-Sep-03 00:00:00.0000, -2.314514809659048E+09, 1.722081754764894E+09, -9.182820073586702E+06,
2459832.500000000, A.D. 2022-Sep-10 00:00:00.0000, -2.316318954569071E+09, 1.717860535978590E+09, -8.238269091898918E+06,
2459839.500000000, A.D. 2022-Sep-17 00:00:00.0000, -2.318118496597572E+09, 1.713635835034022E+09, -7.293699717224836E+06,
2459846.500000000, A.D. 2022-Sep-24 00:00:00.0000, -2.319913426715455E+09, 1.709407656040703E+09, -6.349113848624229E+06,
2459853.500000000, A.D. 2022-Oct-01 00:00:00.0000, -2.321703736028230E+09, 1.705176002562776E+09, -5.404513438440561E+06,
2459860.500000000, A.D. 2022-Oct-08 00:00:00.0000, -2.323489414847112E+09, 1.700940877536604E+09, -4.459900580605149E+06,
2459867.500000000, A.D. 2022-Oct-15 00:00:00.0000, -2.325270451985504E+09, 1.696702284735169E+09, -3.515277451186180E+06,
2459874.500000000, A.D. 2022-Oct-22 00:00:00.0000, -2.327046836462499E+09, 1.692460230095404E+09, -2.570646038944244E+06,
2459881.500000000, A.D. 2022-Oct-29 00:00:00.0000, -2.328818559115560E+09, 1.688214720314954E+09, -1.626008107231259E+06,
2459888.500000000, A.D. 2022-Nov-05 00:00:00.0000, -2.330585612023074E+09, 1.683965761459525E+09, -6.813653560664654E+05,
2459895.500000000, A.D. 2022-Nov-12 00:00:00.0000, -2.332347987701591E+09, 1.679713358848045E+09, 2.632804991605282E+05,
2459902.500000000, A.D. 2022-Nov-19 00:00:00.0000, -2.334105678797145E+09, 1.675457517261513E+09, 1.207927720174909E+06,
2459909.500000000, A.D. 2022-Nov-26 00:00:00.0000, -2.335858678008422E+09, 1.671198241078220E+09, 2.152574552817345E+06,
2459916.500000000, A.D. 2022-Dec-03 00:00:00.0000, -2.337606978075738E+09, 1.666935534323802E+09, 3.097219232297301E+06,
2459923.500000000, A.D. 2022-Dec-10 00:00:00.0000, -2.339350571790329E+09, 1.662669400654827E+09, 4.041859983994126E+06,
2459930.500000000, A.D. 2022-Dec-17 00:00:00.0000, -2.341089451999202E+09, 1.658399843250911E+09, 4.986495015488982E+06,
2459937.500000000, A.D. 2022-Dec-24 00:00:00.0000, -2.342823611496175E+09, 1.654126864549543E+09, 5.931122484430790E+06,
2459944.500000000, A.D. 2022-Dec-31 00:00:00.0000, -2.344553042441465E+09, 1.649850465931119E+09, 6.875740418264985E+06,
2459951.500000000, A.D. 2023-Jan-07 00:00:00.0000, -2.346277735187113E+09, 1.645570648316578E+09, 7.820346653264403E+06,
2459958.500000000, A.D. 2023-Jan-14 00:00:00.0000, -2.347997678475261E+09, 1.641287414174453E+09, 8.764939013960123E+06,
2459965.500000000, A.D. 2023-Jan-21 00:00:00.0000, -2.349712861654035E+09, 1.637000767764704E+09, 9.709515532906532E+06,
2459972.500000000, A.D. 2023-Jan-28 00:00:00.0000, -2.351423275243020E+09, 1.632710713423822E+09, 1.065407435844171E+07,
2459979.500000000, A.D. 2023-Feb-04 00:00:00.0000, -2.353128910056888E+09, 1.628417254918978E+09, 1.159861361707437E+07,
2459986.500000000, A.D. 2023-Feb-11 00:00:00.0000, -2.354829756682392E+09, 1.624120395677659E+09, 1.254313137944961E+07,
2459993.500000000, A.D. 2023-Feb-18 00:00:00.0000, -2.356525805371895E+09, 1.619820139069751E+09, 1.348762566853440E+07,
2460000.500000000, A.D. 2023-Feb-25 00:00:00.0000, -2.358217046090559E+09, 1.615516488580472E+09, 1.443209447283757E+07,
2460007.500000000, A.D. 2023-Mar-04 00:00:00.0000, -2.359903468614809E+09, 1.611209447893175E+09, 1.537653575698638E+07,
2460014.500000000, A.D. 2023-Mar-11 00:00:00.0000, -2.361585062653278E+09, 1.606899020882762E+09, 1.632094746725893E+07,
2460021.500000000, A.D. 2023-Mar-18 00:00:00.0000, -2.363261817942982E+09, 1.602585211470493E+09, 1.726532752392077E+07,
2460028.500000000, A.D. 2023-Mar-25 00:00:00.0000, -2.364933724117194E+09, 1.598268023293206E+09, 1.820967377807844E+07,
2460035.500000000, A.D. 2023-Apr-01 00:00:00.0000, -2.366600769920327E+09, 1.593947459580595E+09, 1.915398392647922E+07,
2460042.500000000, A.D. 2023-Apr-08 00:00:00.0000, -2.368262942385055E+09, 1.589623524465701E+09, 2.009825554101169E+07,
2460049.500000000, A.D. 2023-Apr-15 00:00:00.0000, -2.369920228308566E+09, 1.585296224622636E+09, 2.104248633704567E+07,
2460056.500000000, A.D. 2023-Apr-22 00:00:00.0000, -2.371572616218666E+09, 1.580965568179694E+09, 2.198667426536822E+07,
2460063.500000000, A.D. 2023-Apr-29 00:00:00.0000, -2.373220096094623E+09, 1.576631563160804E+09, 2.293081736100042E+07,
2460070.500000000, A.D. 2023-May-06 00:00:00.0000, -2.374862658602938E+09, 1.572294217236573E+09, 2.387491365587270E+07,
2460077.500000000, A.D. 2023-May-13 00:00:00.0000, -2.376500294824783E+09, 1.567953537891471E+09, 2.481896117183244E+07,
2460084.500000000, A.D. 2023-May-20 00:00:00.0000, -2.378132996240932E+09, 1.563609532516165E+09, 2.576295793219602E+07,
2460091.500000000, A.D. 2023-May-27 00:00:00.0000, -2.379760754780683E+09, 1.559262208395649E+09, 2.670690197146225E+07,
2460098.500000000, A.D. 2023-Jun-03 00:00:00.0000, -2.381383562877167E+09, 1.554911572619221E+09, 2.765079133975708E+07,
2460105.500000000, A.D. 2023-Jun-10 00:00:00.0000, -2.383001413505267E+09, 1.550557631898621E+09, 2.859462409842455E+07,
2460112.500000000, A.D. 2023-Jun-17 00:00:00.0000, -2.384614300113103E+09, 1.546200392234271E+09, 2.953839829340661E+07,
2460119.500000000, A.D. 2023-Jun-24 00:00:00.0000, -2.386222216127086E+09, 1.541839858485303E+09, 3.048211188135505E+07,
2460126.500000000, A.D. 2023-Jul-01 00:00:00.0000, -2.387825153777413E+09, 1.537476034671511E+09, 3.142576265271258E+07,
2460133.500000000, A.D. 2023-Jul-08 00:00:00.0000, -2.389423103917983E+09, 1.533108925829362E+09, 3.236934837231886E+07,
2460140.500000000, A.D. 2023-Jul-15 00:00:00.0000, -2.391016058117482E+09, 1.528738538592305E+09, 3.331286702326751E+07,
2460147.500000000, A.D. 2023-Jul-22 00:00:00.0000, -2.392604009500269E+09, 1.524364879461038E+09, 3.425631674640048E+07,
$$EOE